#dP2021  4  1 12  0  0.00000000      96 __u+U ITR00 EXT  IAC
## 2151 388800.00000000   900.00000000 59305 0.5000000000000
+  117   C06C07C08C09C10C11C12C13C14C16C19C20C21C22C23C24C25
+        C26C27C28C29C30C32C33C34C35C36C37C38C39C40C41C42C43
+        C44C45C46E01E02E03E04E05E07E08E09E11E12E13E14E15E18
+        E19E21E24E25E26E27E30E31E33E36G01G02G03G04G05G06G07
+        G08G09G10G11G12G13G14G15G16G17G18G19G20G21G22G23G24
+        G25G26G27G28G29G30G31G32J01J02J03R01R02R03R04R05R07
+        R08R09R11R12R13R14R15R16R17R18R19R20R21R22R24  0  0
++        11 11  9 11 11 11 10  9 10 10  8  9  8  8  9 10  9
++         8 10 10 11  8 10 10 10  9  9  9  9 11  0  9 10  8
++        11  9  9  7  8  8  9  7  8  8  8  9  9  8 10  7  8
++         9  8  9 10  9  8  7  9  9  8  7  9  7  9  8  9  8
++         8  8  7  7  9  9  8  7  7  8  8  9  8  8  7  8  7
++         8  7  9  8  9  8  8  9  9 10 11  8  9  8  9  9  9
++         8 10  9  9  9  8  8  8  8  8  9  9  9 10  8  0  0
%c M  cc GPS ccc cccc cccc cccc cccc ccccc ccccc ccccc ccccc
%c cc cc ccc ccc cccc cccc cccc cccc ccccc ccccc ccccc ccccc
%f  0.0000000  0.000000000  0.00000000000  0.000000000000000
%f  0.0000000  0.000000000  0.00000000000  0.000000000000000
%i    0    0    0    0      0      0      0      0         0
%i    0    0    0    0      0      0      0      0         0
/* IAC                                ULTRA-RAPID PREDICTION
/* S/V CLOCKS ARE ALIGNED TO GNSS TIME                      
/* G:C1WC2W R:C1PC2P E:C1XC5X C:C2IC6I J:C1CC2S             
/* PCV:IGS14_2134 OL/AL:FES2004  NONE     YN ORB:CoN CLK:CoN
*  2021 04 02  1 30  0.00000000
PC06 -24019.091202  30077.748699  17079.216063    235.820436
PC07 -11487.528182  35575.230043  20228.723365    -77.741183
PC08 -12339.732404  17571.173038 -36194.831459   -895.032835
PC09 -10659.221577  29536.815134  28215.448007    625.873439
PC10   -630.332140  41595.962176   8400.261292    -62.696854
PC11  26057.060664  -7181.470241  -6811.675081   -833.806732
PC12  17784.370691   6415.775051 -20487.389253    910.957025
PC13   2821.596469  24913.609412 -33735.370981    204.646786
PC14  15959.980443  -4322.400919  22502.460629    361.001475
PC16 -21004.404341  30549.240764  19981.861517   -762.723684
PC19 -13951.594349  15157.779956 -18800.713044    783.455850
PC20 -15403.930347  -5155.207830 -22666.394345   -943.443058
PC21   7662.589996  23417.954429  13145.313175   -917.901508
PC22  -4423.662007  27289.413209  -3909.177573   -943.555692
PC23   1046.979794 -17822.725281 -21449.109394   -882.732970
PC24  24767.888871  10779.807018  -6964.051390   -800.480300
PC25  17836.384912  -6011.580034 -20602.778820   -939.064585
PC26  17714.307352  19365.799924   9421.603577    926.961132
PC27  -9074.646924 -13152.676638  22857.760398    508.531564
PC28  10948.845396 -18647.318272  17640.992923    -91.267386
PC29 -23975.934895  14119.137388  -2091.674562    373.139265
PC30 -23488.801858    497.191084  15033.572885    457.050830
PC32  -7816.337350 -23353.967364 -13093.792971   -927.940607
PC33  13947.982642 -15106.574108  18871.031270   -943.014955
PC34  23849.461230   -990.763506 -14488.667625   -705.402198
PC35 -10554.175355  19063.181318 -17417.433350   -346.683873
PC36 -18239.972900   5294.537728  20466.050487   -735.222422
PC37 -16645.193664 -19966.452423 -10164.518799   -887.281337
PC38  -9047.172937  21834.240971 -34894.179109    139.616380
PC39 -17721.808669  31929.117918  20986.060897     29.945371
PC40  -4764.569617  40759.335623   9969.547170    146.981231
PC41   4581.778339 -27206.590830   4262.707120   -937.984739
PC42  15363.896918   6007.398029  22557.808098   -930.886531
PC43  24254.750973 -13739.607706   1592.895765   -666.556055
PC44   9425.248510  13055.548033 -22801.794270    116.374257
PC45   -876.700570  17755.836120  21505.099744    402.674583
PC46 -24828.029383 -10115.724256   7815.658531    335.489937
PE01 -17906.243834 -22497.580906   7045.504994  -1078.155149
PE02  17952.256589  22403.882317  -7171.743498    209.210024
PE03  11055.304466  14065.244550  23585.968572   -415.505689
PE04 -20480.657638   6029.269692 -20494.152047   -741.408527
PE05  -4997.426507  26186.415466  12870.250031   -292.208369
PE07  17983.624215 -22911.778463   5255.966612   -520.354931
PE08  20405.562352  -6503.051140  20432.114264   6024.043385
PE09 -17763.394902  23129.859901  -5102.725845   5714.862560
PE11 -20313.631101  11704.564575 -18060.943024   6140.300321
PE12 -29585.900863     -5.927750   -233.298421   5280.538560
PE13  20667.762379 -11522.822605  17798.286343    414.418490
PE14 -22464.458632  13107.260647   7566.940567  -1382.490309
PE15  29605.133595   -126.486989    277.283405    821.604384
PE18  23671.042413  -1550.782242 -18278.019080  -1512.159069
PE19  -9285.183266 -15986.597327 -23109.222177    241.793031
PE21  -6385.902275 -26710.836968 -11058.164667   -656.974288
PE24  -9950.167151  14919.135590  23528.202035   -824.744751
PE25   6236.914675  26667.745232  11220.448671   -529.939715
PE26  -1234.658942 -16286.688830  24691.882562   1972.939580
PE27   9300.373657 -15626.237097 -23360.335088     -2.281954
PE30  19641.381903   5543.174077 -21445.669506   3058.764452
PE31 -19430.957186  -4584.958548  21858.311248   -479.751089
PE33 -21087.447039 -11341.085810  17400.873150   -467.122172
PE36    451.329489  16119.892768 -24815.683013   -188.037026
PG01  18004.954519  13861.159018 -14286.062457    726.890693
PG02   6396.580315 -14527.206277  21958.578397   -591.813042
PG03  12961.869871  21632.981270   8428.251642   -124.999133
PG04   8356.796301  13040.615798  21578.678035   -189.597066
PG05  -3180.725684 -25068.493892   7723.416030    -37.896114
PG06  19012.504462  -7460.877543  17075.920246      4.335731
PG07  25774.647311   7280.162539   1935.526026    109.084528
PG08   1114.387737  18464.877261 -18944.063317    -15.963836
PG09  16805.209682   2756.707874  20328.076023   -335.801594
PG10 -13992.470938   5441.817072 -21787.512495    -93.398649
PG11  13127.416557  12274.352930 -19909.011015     17.896509
PG12  -9593.460834 -24209.958325   5369.871556    -22.186143
PG13   9178.174075 -20511.231445 -14191.384739    114.888686
PG14  14725.423000  -4130.481751 -21727.378257     98.479499
PG15  -4049.791755 -18483.605321 -18861.328965   -159.048887
PG16  -1751.420358  24115.914546  10192.540111   -303.204956
PG17  21454.667891 -12502.205599  -8993.621310    419.602616
PG18 -26076.012641  -4717.791928  -2239.787325    351.450464
PG19  20518.467178 -16718.278726  -1687.303311    -18.466150
PG20 -18088.215362 -13741.622720 -13980.075427    523.601294
PG21  11481.837627  14715.742248 -18351.801732    107.804337
PG22   9966.765955  24706.287467   -793.261657   -647.406855
PG23 -16713.039791  -6637.372307 -19580.001955    115.514930
PG24 -13451.139049 -15125.629795 -17635.961751      0.322736
PG25 -16020.420378 -14135.003500  15689.586467    110.507479
PG26  -7209.457221  18105.834617  17871.805966     66.410835
PG27  -9945.784348  21920.622107 -10965.548769   -105.106174
PG28  13436.613391  -6682.736057 -21377.078517    593.156592
PG29 -16677.813074  -2884.125242  20433.908380   -322.600853
PG30  24336.546138  -2062.404618 -10661.987926   -406.988184
PG31 -17187.088027   9032.948155  18243.701561   -109.130392
PG32 -20600.133008  14540.038866  -7960.087786     21.931724
PJ01 -22986.005391  31320.894205 -11778.261184   -360.808537
PJ02 -25186.568919  22193.426397  30395.053905      4.556420
PJ03 -35757.022612  20945.084829  -3201.497144     -2.659871
PR01   9668.111708   6646.760969  22657.071574     77.276269
PR02  12084.804757 -15248.967893  16574.191194    473.187426
PR03   6599.597536 -24662.000649    602.366411     33.470383
PR04  -2391.640441 -20031.688211 -15582.672775     80.531475
PR05 -10044.105743  -4291.934254 -23036.746818     69.250864
PR07  -6243.988865  24708.143085    201.517335    -42.544737
PR08   2583.252635  19970.180213  15704.921724    -58.290924
PR09 -12691.255598   2834.675933  21945.276343    -14.137812
PR11  15263.477302  19115.895721   7255.009906      1.635902
PR12  19755.518923  11986.185598 -10756.783404    217.460770
PR13  12953.517895  -2125.122743 -21891.295984    -52.831614
PR14  -1923.481184 -15422.110398 -20216.993769     62.681888
PR15 -15205.993619 -19320.491366  -6788.161547    104.606700
PR16 -20037.631582 -10896.583823  11529.449237    -13.267173
PR17  11217.401404 -12222.812054  19372.687736    412.870502
PR18  -6593.367090  -8901.164074  22985.786933     71.819719
PR19 -20573.461717  -1812.957486  14967.963699   -138.106654
PR20 -23893.840822   7749.416650  -4279.910760    -46.470991
PR21 -10160.834129  12106.360174 -20027.645616   -198.724960
PR22   7846.488693   8436.378940 -22784.191516   -105.685942
PR24  23533.532596  -8482.694416   4990.699036     37.268357
EOF
